STARLINK-31871          
1 59673U 24084V   24144.83335648 -.01759897  00000+0 -20675-1 0  9991
2 59673  42.9999 171.0382 0001737 262.1026 112.8100 15.63516321  3912
STARLINK-31875          
1 59674U 24084W   24144.83335648 -.01758454  00000+0 -20701-1 0  9990
2 59674  42.9991 171.0304 0001555 262.8388 114.6347 15.63463459  3900
STARLINK-31877          
1 59675U 24084X   24144.83335648 -.01759267  00000+0 -20732-1 0  9998
2 59675  42.9995 171.0237 0001711 264.0962 115.6279 15.63437322  3833
STARLINK-31884          
1 59676U 24084Y   24144.83335648 -.01742319  00000+0 -16066-1 0  9994
2 59676  43.0006 170.6690 0001349 262.7392 266.4092 15.69914208  3912
STARLINK-32108          
1 59682U 24086A   24144.58334491  .00210563  00000+0  17199-2 0  9997
2 59682  42.9997 195.0778 0001212 325.1185 340.1662 15.69151308  3475
STARLINK-32080          
1 59683U 24086B   24144.83335648  .00102847  00000+0  90088-3 0  9995
2 59683  42.9993 193.6263 0000642  29.9481 226.8331 15.67821270  3472
STARLINK-32091          
1 59684U 24086C   24144.83335648 -.00035246  00000+0 -59728-3 0  9992
2 59684  42.9996 194.0047 0001807 265.6802 196.4829 15.50596317  3467
STARLINK-32085          
1 59685U 24086D   24144.58334491  .00050693  00000+0  86469-3 0  9993
2 59685  42.9996 195.4657 0001294 290.4879 216.3211 15.50567107  3462
STARLINK-32100          
1 59686U 24086E   24144.83335648  .00173465  00000+0  11348-2 0  9993
2 59686  42.9990 193.3660 0001852 341.7302  20.7176 15.74515450  3501
STARLINK-32089          
1 59687U 24086F   24144.58334491  .00043773  00000+0  74836-3 0  9991
2 59687  42.9995 195.4561 0001344 259.2741 251.3867 15.50557526  3453
STARLINK-32103          
1 59688U 24086G   24144.83335648 -.00174106  00000+0 -30208-2 0  9996
2 59688  42.9997 193.9862 0001583 254.5893 215.2277 15.50648166  3460
STARLINK-32105          
1 59689U 24086H   24144.58334491  .00044331  00000+0  75781-3 0  9994
2 59689  42.9995 195.4459 0001272 253.8018 260.6928 15.50556259  3451
STARLINK-32106          
1 59690U 24086J   24144.58334491  .00043729  00000+0  74767-3 0  9999
2 59690  42.9995 195.4375 0001222 263.5193 254.8087 15.50555413  3459
STARLINK-32090          
1 59691U 24086K   24144.58334491  .00132159  00000+0  22282-2 0  9990
2 59691  42.9995 195.4417 0000511 317.2916 199.1725 15.50484187  3366
STARLINK-32095          
1 59692U 24086L   24144.83335648  .00064112  00000+0  74282-3 0  9995
2 59692  42.9995 193.8126 0000609  32.8781 148.1532 15.60945118  3462
STARLINK-32088          
1 59693U 24086M   24144.58334491  .00043619  00000+0  74585-3 0  9998
2 59693  42.9996 195.4268 0001417 259.8054 262.3562 15.50554370  3457
STARLINK-32107          
1 59694U 24086N   24144.83335648 -.00075057  00000+0 -12838-2 0  9997
2 59694  42.9995 193.9571 0001373 264.1530 217.1520 15.50623733  3302
STARLINK-32104          
1 59695U 24086P   24144.58334491  .00045755  00000+0  78192-3 0  9991
2 59695  42.9996 195.4179 0001576 259.0226 266.9721 15.50552211  3458
STARLINK-32094          
1 59696U 24086Q   24144.83335648 -.01765830  00000+0 -29651-1 0  9995
2 59696  42.9996 193.5666 0001493 259.8730  20.0636 15.54212288  3258
STARLINK-32099          
1 59697U 24086R   24144.58334491  .00051144  00000+0  87284-3 0  9994
2 59697  42.9995 195.4077 0001756 261.8582 267.9695 15.50548535  3457
STARLINK-32096          
1 59698U 24086S   24144.83335648 -.00061427  00000+0 -10483-2 0  9991
2 59698  42.9997 193.9336 0001183 261.7800 229.1163 15.50610448  3461
STARLINK-32102          
1 59699U 24086T   24144.58334491  .00056817  00000+0  96847-3 0  9993
2 59699  42.9995 195.4022 0001459 256.7781 274.9664 15.50544502  3312
STARLINK-32092          
1 59700U 24086U   24144.83335648 -.00048365  00000+0 -82297-3 0  9994
2 59700  42.9995 193.9190 0001719 269.2237 227.4245 15.50602182  3461
STARLINK-32093          
1 59701U 24086V   24144.83335648 -.00055277  00000+0 -94218-3 0  9991
2 59701  42.9995 193.9278 0000797 246.4608 246.3532 15.50606630  3464
STARLINK-32087          
1 59702U 24086W   24144.58334491  .00049844  00000+0  85092-3 0  9990
2 59702  42.9995 195.3751 0001490 255.6661 287.5741 15.50549974  3319
STARLINK-32086          
1 59703U 24086X   24144.58334491  .00048073  00000+0  82107-3 0  9998
2 59703  42.9993 195.3889 0001433 261.2051 276.2865 15.50549915  3411
STARLINK-32098          
1 59704U 24086Y   24144.83335648 -.00054789  00000+0 -93375-3 0  9994
2 59704  42.9996 193.9144 0001118 250.4696 248.0932 15.50605816  3402
STARLINK-11107 [DTC]    
1 59708U 24088A   24144.83335648  .00338334  00000+0  14582-2 0  9991
2 59708  53.1650 316.7769 0000769  88.2133  89.8948 15.83544942  3270
STARLINK-11088 [DTC]    
1 59709U 24088B   24144.83335648  .00272419  00000+0  11763-2 0  9991
2 59709  53.1654 316.7641 0001547 357.7782 186.3452 15.83678799  3274
STARLINK-11092 [DTC]    
1 59710U 24088C   24144.83335648  .00262637  00000+0  11368-2 0  9995
2 59710  53.1649 316.7392 0001427  25.4629 170.5824 15.83653819  3273
STARLINK-11082 [DTC]    
1 59711U 24088D   24144.58334491 -.00342876  00000+0 -15610-2 0  9993
2 59711  53.1650 317.9714 0001269  88.6344 132.9580 15.83940415  3245
STARLINK-11108 [DTC]    
1 59712U 24088E   24144.58334491 -.00027272  00000+0 -11759-3 0  9995
2 59712  53.1649 317.9476 0000748 119.4643 113.6903 15.83805027  3249
STARLINK-11100 [DTC]    
1 59713U 24088F   24144.58334491 -.00004998  00000+0 -18859-4 0  9995
2 59713  53.1649 317.9232 0001084 112.2630 132.6142 15.83793399  3245
STARLINK-11094 [DTC]    
1 59714U 24088G   24144.83335648 -.00359553  00000+0 -16322-2 0  9990
2 59714  53.1643 316.6424 0000835  63.3234 179.4723 15.84044285  3224
STARLINK-11101 [DTC]    
1 59715U 24088H   24144.58334491 -.00576833  00000+0 -25036-2 0  9992
2 59715  53.1645 317.8595 0000656  72.7565 202.9747 15.85498152  3248
STARLINK-11099 [DTC]    
1 59716U 24088J   24144.83335648 -.00564732  00000+0 -25477-2 0  9990
2 59716  53.1643 316.6205 0000682  60.1822 193.3460 15.84671503  3278
STARLINK-11084 [DTC]    
1 59717U 24088K   24144.83335648 -.00525388  00000+0 -22525-2 0  9996
2 59717  53.1640 316.5803 0000610  68.3195 204.4553 15.85629174  3278
STARLINK-11103 [DTC]    
1 59718U 24088L   24144.83335648 -.00505311  00000+0 -21155-2 0  9999
2 59718  53.1639 316.5625 0000758  55.3470 225.9768 15.86068238  3279
STARLINK-11096 [DTC]    
1 59719U 24088M   24144.83335648 -.00488506  00000+0 -20035-2 0  9992
2 59719  53.1637 316.5458 0000253  81.3714 208.2034 15.86450825  3279
STARLINK-11095 [DTC]    
1 59720U 24088N   24144.58334491 -.00511585  00000+0 -20365-2 0  9991
2 59720  53.1637 317.7921 0000646  67.4250 240.5287 15.87107408  3248
STARLINK-31834          
1 59721U 24088P   24144.83335648 -.00961833  00000+0 -67799-2 0  9992
2 59721  53.1637 316.8949 0001271  63.5607  55.7124 15.76035998  3122
STARLINK-31843          
1 59722U 24088Q   24144.58334491 -.01023245  00000+0 -69783-2 0  9992
2 59722  53.1638 318.1328 0001002  83.2760  58.8393 15.76528234  3099
STARLINK-31766          
1 59723U 24088R   24144.83335648 -.00999818  00000+0 -69987-2 0  9999
2 59723  53.1637 316.8852 0001283  69.2893  54.6596 15.75884791  3123
STARLINK-31836          
1 59724U 24088S   24144.83335648 -.01024241  00000+0 -72463-2 0  9993
2 59724  53.1637 316.8754 0000914  64.9758  63.7023 15.75704696  3229
STARLINK-31820          
1 59725U 24088T   24144.58334491 -.01062004  00000+0 -73633-2 0  9990
2 59725  53.1639 318.1137 0001208  67.6305  83.9588 15.76245203  3097
STARLINK-31642          
1 59726U 24088U   24144.58334491 -.01047274  00000+0 -72125-2 0  9998
2 59726  53.1639 318.1233 0001043  86.1120  60.9228 15.76363581  3099
STARLINK-31827          
1 59727U 24088V   24144.58334491 -.01069039  00000+0 -74201-2 0  9999
2 59727  53.1641 318.1095 0001102  86.2789  67.2998 15.76238259  3308
STARLINK-31472          
1 59730U 24090A   24144.58334491 -.00861248  00000+0 -52508-2 0  9993
2 59730  43.0027 316.6673 0001518 271.4998  95.6741 15.78750031  2819
STARLINK-31817          
1 59731U 24090B   24144.58334491 -.00864211  00000+0 -52651-2 0  9996
2 59731  43.0027 316.6621 0001381 275.2483  93.7696 15.78774714  2870
STARLINK-31841          
1 59732U 24090C   24144.58334491 -.00871474  00000+0 -53104-2 0  9990
2 59732  43.0025 316.6571 0001555 273.1172  97.9472 15.78787790  2874
STARLINK-31833          
1 59733U 24090D   24144.58334491 -.00879551  00000+0 -53697-2 0  9992
2 59733  43.0024 316.6508 0001457 277.7995  95.7481 15.78768835  2817
STARLINK-31849          
1 59734U 24090E   24144.58334491 -.00887942  00000+0 -54278-2 0  9992
2 59734  43.0025 316.6449 0001525 272.2983 103.5490 15.78762535  2871
STARLINK-31661          
1 59735U 24090F   24144.58334491 -.00896381  00000+0 -54865-2 0  9992
2 59735  43.0025 316.6392 0001577 271.6086 106.5451 15.78755883  2815
STARLINK-31707          
1 59736U 24090G   24144.58334491 -.00904805  00000+0 -55459-2 0  9994
2 59736  43.0024 316.6334 0001582 270.5422 109.9369 15.78747101  2874
STARLINK-31821          
1 59737U 24090H   24144.58334491 -.00906695  00000+0 -55603-2 0  9995
2 59737  43.0024 316.6274 0001604 284.3631  98.3561 15.78740808  2814
STARLINK-31819          
1 59738U 24090J   24144.58334491 -.00917693  00000+0 -56322-2 0  9995
2 59738  43.0024 316.6220 0001824 272.7932 112.0228 15.78750332  2812
STARLINK-31726          
1 59739U 24090K   24144.58334491 -.00925971  00000+0 -56935-2 0  9994
2 59739  43.0023 316.6160 0001602 277.6724 109.5397 15.78734153  2879
STARLINK-31759          
1 59740U 24090L   24144.58334491 -.00934728  00000+0 -57563-2 0  9994
2 59740  43.0023 316.6102 0001516 277.6035 111.9321 15.78724191  2871
STARLINK-31818          
1 59741U 24090M   24144.58334491 -.00936836  00000+0 -57670-2 0  9996
2 59741  43.0022 316.6052 0001457 281.5579 109.9448 15.78739043  2842
